*******************************************************************************
 Revised: April 12, 2021             Mercury                            199 / 1

 PHYSICAL DATA (updated 2024-Mar-04):
  Vol. Mean Radius (km) =  2439.4+-0.1    Density (g cm^-3)     = 5.427
  Mass x10^23 (kg)      =     3.302       Volume (x10^10 km^3)  = 6.085  
  Sidereal rot. period  =    58.6463 d    Sid. rot. rate (rad/s)= 0.00000124001
  Mean solar day        =   175.9421 d    Core radius (km)      = ~1600 
  Geometric Albedo      =     0.106       Surface emissivity    = 0.77+-0.06
  GM (km^3/s^2)         = 22031.86855     Equatorial radius, Re = 2440.53 km
  GM 1-sigma (km^3/s^2) =                 Mass ratio (Sun/plnt) = 6023682
  Mom. of Inertia       =     0.33        Equ. gravity  m/s^2   = 3.701     
  Atmos. pressure (bar) = < 5x10^-15      Max. angular diam.    = 11.0"   
  Mean Temperature (K)  = 440             Visual mag. V(1,0)    = -0.42 
  Obliquity to orbit[1] =  2.11' +/- 0.1' Hill's sphere rad. Rp = 94.4 
  Sidereal orb. per.    =  0.2408467 y    Mean Orbit vel.  km/s = 47.362 
  Sidereal orb. per.    = 87.969257  d    Escape vel. km/s      =  4.435
                                 Perihelion  Aphelion    Mean
  Solar Constant (W/m^2)         14462       6278        9126
  Maximum Planetary IR (W/m^2)   12700       5500        8000
  Minimum Planetary IR (W/m^2)   6           6           6
*******************************************************************************


*******************************************************************************
Ephemeris / WWW_USER Sun Dec  7 10:10:39 2025 Pasadena, USA      / Horizons
*******************************************************************************
Target body name: Mercury (199)                   {source: DE441}
Center body name: Solar System Barycenter (0)     {source: DE441}
Center-site name: BODY CENTER
*******************************************************************************
Start time      : A.D. 2015-Jan-02 00:00:00.0000 TDB
Stop  time      : A.D. 2015-Jan-05 00:00:00.0000 TDB
Step-size       : 60 minutes
*******************************************************************************
Center geodetic : 0.0, 0.0, 0.0                   {E-lon(deg),Lat(deg),Alt(km)}
Center cylindric: 0.0, 0.0, 0.0                   {E-lon(deg),Dxy(km),Dz(km)}
Center radii    : (undefined)
Output units    : KM-S
Calendar mode   : Mixed Julian/Gregorian
Output type     : GEOMETRIC cartesian states
Output format   : 3 (position, velocity, LT, range, range-rate)
Reference frame : Ecliptic of J2000.0
*******************************************************************************
            JDTDB,            Calendar Date (TDB),                      X,                      Y,                      Z,                     VX,                     VY,                     VZ,                     LT,                     RG,                     RR,
**************************************************************************************************************************************************************************************************************************************************************************
$$SOE
2457025.541666667, A.D. 2015-Jan-03 01:00:00.0000,  5.312054625013962E+07, -2.255152045494499E+07, -6.687360155591659E+06,  9.579814947794732E+00,  4.703631094416475E+01,  2.964073297424935E+00,  1.937856478061592E+02,  5.809547568093077E+07, -9.840304160474840E+00,
2457025.583333333, A.D. 2015-Jan-03 02:00:00.0000,  5.315479692875927E+07, -2.238208929769830E+07, -6.676659572992678E+06,  9.448284991298845E+00,  4.709205651328439E+01,  2.980695495534146E+00,  1.936674441136447E+02,  5.806003910540719E+07, -9.846669791792188E+00,
2457025.625000000, A.D. 2015-Jan-03 03:00:00.0000,  5.318857350723868E+07, -2.221245803239678E+07, -6.665899143203808E+06,  9.316426003136220E+00,  4.714748179264673E+01,  2.997321710273734E+00,  1.935491644298453E+02,  5.802457974826949E+07, -9.852960556724527E+00,
2457025.666666667, A.D. 2015-Jan-03 04:00:00.0000,  5.322187480130732E+07, -2.204262781525288E+07, -6.655078852046475E+06,  9.184238119778003E+00,  4.720258502042341E+01,  3.013951785166729E+00,  1.934308096558000E+02,  5.798909787964240E+07, -9.859176118586674E+00,
2457025.708333333, A.D. 2015-Jan-03 05:00:00.0000,  5.325469962719906E+07, -2.187259980883351E+07, -6.644198685907599E+06,  9.051721484984951E+00,  4.725736442816778E+01,  3.030585562526618E+00,  1.933123806965971E+02,  5.795359377086459E+07, -9.865316139636537E+00,
2457025.750000000, A.D. 2015-Jan-03 06:00:00.0000,  5.328704680167855E+07, -2.170237518208392E+07, -6.633258631743955E+06,  8.918876249880563E+00,  4.731181824081827E+01,  3.047222883450889E+00,  1.931938784613872E+02,  5.791806769449251E+07, -9.871380281077638E+00,
2457025.791666667, A.D. 2015-Jan-03 07:00:00.0000,  5.331891514206780E+07, -2.153195511035147E+07, -6.622258677086575E+06,  8.785702573024654E+00,  4.736594467670245E+01,  3.063863587814609E+00,  1.930753038633952E+02,  5.788251992430415E+07, -9.877368203061838E+00,
2457025.833333333, A.D. 2015-Jan-03 08:00:00.0000,  5.335030346627320E+07, -2.136134077540945E+07, -6.611198810045139E+06,  8.652200620487374E+00,  4.741974194754133E+01,  3.080507514264021E+00,  1.929566578199337E+02,  5.784695073530284E+07, -9.883279564692064E+00,
2457025.875000000, A.D. 2015-Jan-03 09:00:00.0000,  5.338121059281258E+07, -2.119053336548082E+07, -6.600079019312427E+06,  8.518370565923684E+00,  4.747320825845433E+01,  3.097154500210081E+00,  1.928379412524150E+02,  5.781136040372108E+07, -9.889114024025210E+00,
2457025.916666667, A.D. 2015-Jan-03 10:00:00.0000,  5.341163534084269E+07, -2.101953407526200E+07, -6.588899294168778E+06,  8.384212590648255E+00,  4.752634180796473E+01,  3.113804381822039E+00,  1.927191550863637E+02,  5.777574920702416E+07, -9.894871238075103E+00,
2457025.958333333, A.D. 2015-Jan-03 11:00:00.0000,  5.344157653018694E+07, -2.084834410594658E+07, -6.577659624486554E+06,  8.249726883710846E+00,  4.757914078800552E+01,  3.130456994021007E+00,  1.926003002514295E+02,  5.774011742391407E+07, -9.900550862815610E+00,
2457026.000000000, A.D. 2015-Jan-03 12:00:00.0000,  5.347103298136333E+07, -2.067696466524904E+07, -6.566360000734672E+06,  8.114913641972109E+00,  4.763160338392589E+01,  3.147112170473530E+00,  1.924813776813995E+02,  5.770446533433310E+07, -9.906152553183789E+00,
2457026.041666667, A.D. 2015-Jan-03 13:00:00.0000,  5.350000351561275E+07, -2.050539696742846E+07, -6.555000413983105E+06,  7.979773070179824E+00,  4.768372777449815E+01,  3.163769743585167E+00,  1.923623883142106E+02,  5.766879321946766E+07, -9.911675963083217E+00,
2457026.083333333, A.D. 2015-Jan-03 14:00:00.0000,  5.352848695492749E+07, -2.033364223331216E+07, -6.543580855907450E+06,  7.844305381045621E+00,  4.773551213192528E+01,  3.180429544494057E+00,  1.922433330919618E+02,  5.763310136175197E+07, -9.917120745387423E+00,
2457026.125000000, A.D. 2015-Jan-03 15:00:00.0000,  5.355648212208004E+07, -2.016170169031934E+07, -6.532101318793504E+06,  7.708510795322109E+00,  4.778695462184880E+01,  3.197091403064501E+00,  1.921242129609269E+02,  5.759739004487173E+07, -9.922486551943328E+00,
2457026.166666667, A.D. 2015-Jan-03 16:00:00.0000,  5.358398784065222E+07, -1.998957657248469E+07, -6.520561795541839E+06,  7.572389541880465E+00,  4.783805340335757E+01,  3.213755147880526E+00,  1.920050288715664E+02,  5.756165955376785E+07, -9.927773033574956E+00,
2457026.208333333, A.D. 2015-Jan-03 17:00:00.0000,  5.361100293506447E+07, -1.981726812048195E+07, -6.508962279672460E+06,  7.435941857788464E+00,  4.788880662899669E+01,  3.230420606239505E+00,  1.918857817785400E+02,  5.752591017464009E+07, -9.932979840087150E+00,
2457026.250000000, A.D. 2015-Jan-03 18:00:00.0000,  5.363752623060559E+07, -1.964477758164749E+07, -6.497302765329407E+06,  7.299167988388961E+00,  4.793921244477729E+01,  3.247087604145715E+00,  1.917664726407186E+02,  5.749014219495078E+07, -9.938106620269414E+00,
2457026.291666667, A.D. 2015-Jan-03 19:00:00.0000,  5.366355655346260E+07, -1.947210621000374E+07, -6.485583247285455E+06,  7.162068187378785E+00,  4.798926899018670E+01,  3.263755966303957E+00,  1.916471024211969E+02,  5.745435590342837E+07, -9.943153021899905E+00,
2457026.333333333, A.D. 2015-Jan-03 20:00:00.0000,  5.368909273075100E+07, -1.929925526628275E+07, -6.473803720946787E+06,  7.024642716888116E+00,  4.803897439819935E+01,  3.280425516113127E+00,  1.915276720873051E+02,  5.741855159007119E+07, -9.948118691749535E+00,
2457026.375000000, A.D. 2015-Jan-03 21:00:00.0000,  5.371413359054525E+07, -1.912622601794956E+07, -6.461964182357702E+06,  6.886891847560269E+00,  4.808832679528802E+01,  3.297096075659880E+00,  1.914081826106211E+02,  5.738272954615096E+07, -9.953003275586163E+00,
2457026.416666667, A.D. 2015-Jan-03 22:00:00.0000,  5.373867796190957E+07, -1.895301973922555E+07, -6.450064628205374E+06,  6.748815858631936E+00,  4.813732430143597E+01,  3.313767465712189E+00,  1.912886349669825E+02,  5.734689006421643E+07, -9.957806418178931E+00,
2457026.458333333, A.D. 2015-Jan-03 23:00:00.0000,  5.376272467492902E+07, -1.877963771111188E+07, -6.438105055824582E+06,  6.610415038013841E+00,  4.818596503014943E+01,  3.330439505712995E+00,  1.911690301364986E+02,  5.731103343809699E+07, -9.962527763302736E+00,
2457026.500000000, A.D. 2015-Jan-04 00:00:00.0000,  5.378627256074089E+07, -1.860608122141269E+07, -6.426085463202514E+06,  6.471689682371878E+00,  4.823424708847079E+01,  3.347112013773863E+00,  1.910493691035624E+02,  5.727515996290623E+07, -9.967166953742776E+00,
2457026.541666667, A.D. 2015-Jan-04 01:00:00.0000,  5.380932045156632E+07, -1.843235156475839E+07, -6.414005848983558E+06,  6.332640097208632E+00,  4.828216857699236E+01,  3.363784806668583E+00,  1.909296528568623E+02,  5.723926993504546E+07, -9.971723631299268E+00,
